{"type": "FeatureCollection", "features": [ {"type": "Feature", "properties": {"norad_id": 33867, "name": "IRIDIUM 33 DEB", "group": "iridium-33-debris", "lat": 43.13656758545213, "lon": -1.8089406887285975, "alt_km": 396.80302313037555, "timestamp": "2025-12-03T15:48:03.451501+00:00", "meta": {"OBJECT_NAME": "IRIDIUM 33 DEB", "OBJECT_ID": "1997-051AL", "EPOCH": "2025-12-03T07:53:15.166464", "MEAN_MOTION": 15.53727826, "ECCENTRICITY": 0.00121818, "INCLINATION": 86.3627, "RA_OF_ASC_NODE": 354.9416, "ARG_OF_PERICENTER": 99.5397, "MEAN_ANOMALY": 260.7241, "EPHEMERIS_TYPE": 0, "CLASSIFICATION_TYPE": "U", "NORAD_CAT_ID": 33867, "ELEMENT_SET_NO": 999, "REV_AT_EPOCH": 89364, "BSTAR": 0.0073072156, "MEAN_MOTION_DOT": 0.00497539, "MEAN_MOTION_DDOT": 0}, "tle": {"line1": "1 33867U 97051AL  25337.32864776  .00497539  00000+0  73072-2 0  9999", "line2": "2 33867  86.3627 354.9416 0012181  99.5397 260.7241 15.53727826893646"}}, "geometry": {"type": "Point", "coordinates": [-1.8089406887285975, 43.13656758545213]}}, {"type": "Feature", "properties": {"norad_id": 33870, "name": "IRIDIUM 33 DEB", "group": "iridium-33-debris", "lat": -68.52567196905338, "lon": -108.57533331102053, "alt_km": 735.7582692350697, "timestamp": "2025-12-03T15:48:03.451511+00:00", "meta": {"OBJECT_NAME": "IRIDIUM 33 DEB", "OBJECT_ID": "1997-051AP", "EPOCH": "2025-12-03T04:49:08.389056", "MEAN_MOTION": 14.45760529, "ECCENTRICITY": 0.00204752, "INCLINATION": 86.3757, "RA_OF_ASC_NODE": 62.349, "ARG_OF_PERICENTER": 209.9044, "MEAN_ANOMALY": 178.6407, "EPHEMERIS_TYPE": 0, "CLASSIFICATION_TYPE": "U", "NORAD_CAT_ID": 33870, "ELEMENT_SET_NO": 999, "REV_AT_EPOCH": 87999, "BSTAR": 0.0011974106, "MEAN_MOTION_DOT": 4.273e-05, "MEAN_MOTION_DDOT": 0}, "tle": {"line1": "1 33870U 97051AP  25337.20079154  .00004273  00000+0  11974-2 0  9990", "line2": "2 33870  86.3757  62.3490 0020475 209.9044 178.6407 14.45760529879997"}}, "geometry": {"type": "Point", "coordinates": [-108.57533331102053, -68.52567196905338]}}, {"type": "Feature", "properties": {"norad_id": 33881, "name": "IRIDIUM 33 DEB", "group": "iridium-33-debris", "lat": 50.62124214281135, "lon": -73.72884902519968, "alt_km": 689.0857026286958, "timestamp": "2025-12-03T15:48:03.451520+00:00", "meta": {"OBJECT_NAME": "IRIDIUM 33 DEB", "OBJECT_ID": "1997-051BA", "EPOCH": "2025-12-03T08:52:49.328832", "MEAN_MOTION": 14.56290168, "ECCENTRICITY": 0.00611572, "INCLINATION": 86.3865, "RA_OF_ASC_NODE": 110.812, "ARG_OF_PERICENTER": 205.0667, "MEAN_ANOMALY": 213.9917, "EPHEMERIS_TYPE": 0, "CLASSIFICATION_TYPE": "U", "NORAD_CAT_ID": 33881, "ELEMENT_SET_NO": 999, "REV_AT_EPOCH": 87364, "BSTAR": 0.0026029881, "MEAN_MOTION_DOT": 0.00011848, "MEAN_MOTION_DDOT": 0}, "tle": {"line1": "1 33881U 97051BA  25337.37001538  .00011848  00000+0  26030-2 0  9996", "line2": "2 33881  86.3865 110.8120 0061157 205.0667 213.9917 14.56290168873642"}}, "geometry": {"type": "Point", "coordinates": [-73.72884902519968, 50.62124214281135]}}, {"type": "Feature", "properties": {"norad_id": 33884, "name": "IRIDIUM 33 DEB", "group": "iridium-33-debris", "lat": 63.76574320548222, "lon": -173.48361007197403, "alt_km": 635.8256193332027, "timestamp": "2025-12-03T15:48:03.451529+00:00", "meta": {"OBJECT_NAME": "IRIDIUM 33 DEB", "OBJECT_ID": "1997-051BD", "EPOCH": "2025-12-03T02:24:03.793824", "MEAN_MOTION": 14.77130142, "ECCENTRICITY": 0.00106894, "INCLINATION": 86.3701, "RA_OF_ASC_NODE": 14.1694, "ARG_OF_PERICENTER": 359.2537, "MEAN_ANOMALY": 29.5165, "EPHEMERIS_TYPE": 0, "CLASSIFICATION_TYPE": "U", "NORAD_CAT_ID": 33884, "ELEMENT_SET_NO": 999, "REV_AT_EPOCH": 88705, "BSTAR": 0.0017255958, "MEAN_MOTION_DOT": 0.0001224, "MEAN_MOTION_DDOT": 0}, "tle": {"line1": "1 33884U 97051BD  25337.10004391  .00012240  00000+0  17256-2 0  9997", "line2": "2 33884  86.3701  14.1694 0010689 359.2537  29.5165 14.77130142887052"}}, "geometry": {"type": "Point", "coordinates": [-173.48361007197403, 63.76574320548222]}}, {"type": "Feature", "properties": {"norad_id": 33886, "name": "IRIDIUM 33 DEB", "group": "iridium-33-debris", "lat": -51.69855620409835, "lon": 66.45722738480528, "alt_km": 771.3077577724316, "timestamp": "2025-12-03T15:48:03.451539+00:00", "meta": {"OBJECT_NAME": "IRIDIUM 33 DEB", "OBJECT_ID": "1997-051BF", "EPOCH": "2025-12-03T07:58:37.157664", "MEAN_MOTION": 14.36032893, "ECCENTRICITY": 0.00120623, "INCLINATION": 86.3832, "RA_OF_ASC_NODE": 71.1878, "ARG_OF_PERICENTER": 277.8221, "MEAN_ANOMALY": 146.0866, "EPHEMERIS_TYPE": 0, "CLASSIFICATION_TYPE": "U", "NORAD_CAT_ID": 33886, "ELEMENT_SET_NO": 999, "REV_AT_EPOCH": 87917, "BSTAR": 0.00031821928, "MEAN_MOTION_DOT": 9.45e-06, "MEAN_MOTION_DDOT": 0}, "tle": {"line1": "1 33886U 97051BF  25337.33237451  .00000945  00000+0  31822-3 0  9994", "line2": "2 33886  86.3832  71.1878 0012062 277.8221 146.0866 14.36032893879174"}}, "geometry": {"type": "Point", "coordinates": [66.45722738480528, -51.69855620409835]}}, {"type": "Feature", "properties": {"norad_id": 33887, "name": "IRIDIUM 33 DEB", "group": "iridium-33-debris", "lat": -26.165084570250457, "lon": -170.8749981769802, "alt_km": 772.2563393853916, "timestamp": "2025-12-03T15:48:03.451548+00:00", "meta": {"OBJECT_NAME": "IRIDIUM 33 DEB", "OBJECT_ID": "1997-051BG", "EPOCH": "2025-12-03T08:13:03.825696", "MEAN_MOTION": 14.37207474, "ECCENTRICITY": 0.00040333, "INCLINATION": 86.3052, "RA_OF_ASC_NODE": 7.4418, "ARG_OF_PERICENTER": 271.7393, "MEAN_ANOMALY": 100.6476, "EPHEMERIS_TYPE": 0, "CLASSIFICATION_TYPE": "U", "NORAD_CAT_ID": 33887, "ELEMENT_SET_NO": 999, "REV_AT_EPOCH": 88030, "BSTAR": 0.00021392763, "MEAN_MOTION_DOT": 6.56e-06, "MEAN_MOTION_DDOT": 0}, "tle": {"line1": "1 33887U 97051BG  25337.34240539  .00000656  00000+0  21393-3 0  9998", "line2": "2 33887  86.3052   7.4418 0004033 271.7393 100.6476 14.37207474880303"}}, "geometry": {"type": "Point", "coordinates": [-170.8749981769802, -26.165084570250457]}}, {"type": "Feature", "properties": {"norad_id": 33953, "name": "IRIDIUM 33 DEB", "group": "iridium-33-debris", "lat": -13.135922472321912, "lon": -121.43460471962801, "alt_km": 707.4127314029247, "timestamp": "2025-12-03T15:48:03.451558+00:00", "meta": {"OBJECT_NAME": "IRIDIUM 33 DEB", "OBJECT_ID": "1997-051BN", "EPOCH": "2025-12-03T05:09:00.716832", "MEAN_MOTION": 14.55157442, "ECCENTRICITY": 0.00184494, "INCLINATION": 86.3853, "RA_OF_ASC_NODE": 57.9126, "ARG_OF_PERICENTER": 131.9523, "MEAN_ANOMALY": 257.615, "EPHEMERIS_TYPE": 0, "CLASSIFICATION_TYPE": "U", "NORAD_CAT_ID": 33953, "ELEMENT_SET_NO": 999, "REV_AT_EPOCH": 88165, "BSTAR": 0.0017324452, "MEAN_MOTION_DOT": 7.523e-05, "MEAN_MOTION_DDOT": 0}, "tle": {"line1": "1 33953U 97051BN  25337.21459163  .00007523  00000+0  17324-2 0  9991", "line2": "2 33953  86.3853  57.9126 0018449 131.9523 257.6150 14.55157442881650"}}, "geometry": {"type": "Point", "coordinates": [-121.43460471962801, -13.135922472321912]}}, {"type": "Feature", "properties": {"norad_id": 33960, "name": "IRIDIUM 33 DEB", "group": "iridium-33-debris", "lat": 67.62042260229912, "lon": 104.63411681016355, "alt_km": 605.1496313347425, "timestamp": "2025-12-03T15:48:03.451567+00:00", "meta": {"OBJECT_NAME": "IRIDIUM 33 DEB", "OBJECT_ID": "1997-051BV", "EPOCH": "2025-12-03T07:47:15.987840", "MEAN_MOTION": 14.84371452, "ECCENTRICITY": 0.00070258, "INCLINATION": 86.2527, "RA_OF_ASC_NODE": 293.9503, "ARG_OF_PERICENTER": 74.7434, "MEAN_ANOMALY": 54.2273, "EPHEMERIS_TYPE": 0, "CLASSIFICATION_TYPE": "U", "NORAD_CAT_ID": 33960, "ELEMENT_SET_NO": 999, "REV_AT_EPOCH": 88727, "BSTAR": 0.0041778807, "MEAN_MOTION_DOT": 0.00035262, "MEAN_MOTION_DDOT": 0}, "tle": {"line1": "1 33960U 97051BV  25337.32449060  .00035262  00000+0  41779-2 0  9998", "line2": "2 33960  86.2527 293.9503 0007025  74.7434  54.2273 14.84371452887271"}}, "geometry": {"type": "Point", "coordinates": [104.63411681016355, 67.62042260229912]}}, {"type": "Feature", "properties": {"norad_id": 33966, "name": "IRIDIUM 33 DEB", "group": "iridium-33-debris", "lat": 35.32108346769461, "lon": -132.63768653298388, "alt_km": 723.8568188988575, "timestamp": "2025-12-03T15:48:03.451577+00:00", "meta": {"OBJECT_NAME": "IRIDIUM 33 DEB", "OBJECT_ID": "1997-051CB", "EPOCH": "2025-12-03T05:26:31.518816", "MEAN_MOTION": 14.49526909, "ECCENTRICITY": 0.00063695, "INCLINATION": 86.3933, "RA_OF_ASC_NODE": 50.109, "ARG_OF_PERICENTER": 222.6841, "MEAN_ANOMALY": 191.0152, "EPHEMERIS_TYPE": 0, "CLASSIFICATION_TYPE": "U", "NORAD_CAT_ID": 33966, "ELEMENT_SET_NO": 999, "REV_AT_EPOCH": 88304, "BSTAR": 0.00087232157, "MEAN_MOTION_DOT": 3.363e-05, "MEAN_MOTION_DDOT": 0}, "tle": {"line1": "1 33966U 97051CB  25337.22675369  .00003363  00000+0  87232-3 0  9998", "line2": "2 33966  86.3933  50.1090 0006369 222.6841 191.0152 14.49526909883046"}}, "geometry": {"type": "Point", "coordinates": [-132.63768653298388, 35.32108346769461]}}, {"type": "Feature", "properties": {"norad_id": 34071, "name": "IRIDIUM 33 DEB", "group": "iridium-33-debris", "lat": -35.35545114579281, "lon": -155.6263033560178, "alt_km": 733.2081919994453, "timestamp": "2025-12-03T15:48:03.451586+00:00", "meta": {"OBJECT_NAME": "IRIDIUM 33 DEB", "OBJECT_ID": "1997-051CE", "EPOCH": "2025-12-03T04:52:11.058528", "MEAN_MOTION": 14.49394143, "ECCENTRICITY": 0.00094708, "INCLINATION": 86.3467, "RA_OF_ASC_NODE": 21.9734, "ARG_OF_PERICENTER": 133.4205, "MEAN_ANOMALY": 226.7789, "EPHEMERIS_TYPE": 0, "CLASSIFICATION_TYPE": "U", "NORAD_CAT_ID": 34071, "ELEMENT_SET_NO": 999, "REV_AT_EPOCH": 88196, "BSTAR": 0.00088021325, "MEAN_MOTION_DOT": 3.385e-05, "MEAN_MOTION_DDOT": 0}, "tle": {"line1": "1 34071U 97051CE  25337.20290577  .00003385  00000+0  88021-3 0  9999", "line2": "2 34071  86.3467  21.9734 0009470 133.4205 226.7789 14.49394143881960"}}, "geometry": {"type": "Point", "coordinates": [-155.6263033560178, -35.35545114579281]}}]}